SPACEMOBILE-003         
1 61045U 24163A   26177.81235899  .00001689  00000+0  90246-4 0  9998
2 61045  52.9744 265.1828 0005991 141.0621 219.0806 15.20822722 99230
SPACEMOBILE-005         
1 61046U 24163B   26178.45283833  .00008221  00000+0  38138-3 0  9991
2 61046  52.9789 262.1661 0009095 142.8875 217.2749 15.20871622 99320
SPACEMOBILE-001         
1 61047U 24163C   26178.38582557  .00003307  00000+0  16236-3 0  9994
2 61047  52.9768 262.1979 0008380 139.0008 221.1617 15.20862773 99316
SPACEMOBILE-002         
1 61048U 24163D   26178.50133961  .00010622  00000+0  48856-3 0  9991
2 61048  52.9729 261.7090 0007791 144.3988 215.7527 15.20859833 99338
SPACEMOBILE-004         
1 61049U 24163E   26178.48346241  .00014240  00000+0  65032-3 0  9991
2 61049  52.9683 261.5812 0008657 170.3223 189.7940 15.20818387 99339
SPACEMOBILE-001 DEB     
1 62369U 24163F   26178.53744507  .00008224  00000+0  24861-3 0  9990
2 62369  52.9931 230.4973 0006735 189.3866 170.7009 15.35108714 88091
SPACEMOBILE-002 DEB     
1 62370U 24163G   26178.47983654  .00016017  00000+0  36363-3 0  9992
2 62370  52.9405 216.0422 0004873 218.7571 141.3083 15.43212526 99958
SPACEMOBILE-003 DEB     
1 62371U 24163H   26178.48785272  .00015849  00000+0  38761-3 0  9996
2 62371  52.9685 222.5663 0006406 175.8190 184.2868 15.40971956 93476
SPACEMOBILE-004 DEB     
1 62372U 24163J   26178.49801949  .00011622  00000+0  29326-3 0  9990
2 62372  52.9830 222.0509 0003491 192.9144 167.1770 15.40321578 96545
SPACEMOBILE-005 DEB     
1 62373U 24163K   26178.42098330  .00009908  00000+0  30420-3 0  9997
2 62373  52.9740 235.8879 0006821 169.7575 190.3565 15.34363486 99694
SPACEMOBILE-006         
1 67232U 25309A   26178.50757023  .00003485  00000+0  18152-3 0  9991
2 67232  52.9968 284.3597 0011245 158.1565 201.9910 15.18592471 28165
SPACEMOBILE-008         
1 69589U 26139A   26178.51323760  .00000596  00000+0  50512-4 0  9995
2 69589  52.9937 215.6857 0004013  11.4857 348.6225 15.12780473  1540
SPACEMOBILE-009         
1 69590U 26139B   26178.51395242  .00000562  00000+0  48715-4 0  9996
2 69590  52.9929 215.6865 0004196   5.6278 354.4759 15.12673959  1543
SPACEMOBILE-010         
1 69591U 26139C   26178.51509045  .00000544  00000+0  47935-4 0  9998
2 69591  52.9934 215.6957 0004050 355.3386   4.7567 15.12505239  1554
